start=new Date('2022-02-02T00:00:00.000Z').valueOf();
sats=[{"SITE":"AFETR","PERIAPSIS":"342.484","OBJECT_NAME":"STARLINK-1870","REF_FRAME":"TEME","SEMIMAJOR_AXIS":"6722.441","MEAN_ANOMALY":"36.7776","DECAY_DATE":null,"TLE_LINE2":"2 47156  53.0548  76.1268 0002711 323.3057  36.7776 15.75114927 67713","OBJECT_ID":"2020-088AL","MEAN_MOTION_DOT":"0.00000233","PERIOD":"91.422","MEAN_MOTION_DDOT":"0.0000000000000","ARG_OF_PERICENTER":"323.3057","FILE":"3289675","COUNTRY_CODE":"US","MEAN_ELEMENT_THEORY":"SGP4","CLASSIFICATION_TYPE":"U","EPHEMERIS_TYPE":"0","ECCENTRICITY":"0.00027110","OBJECT_TYPE":"PAYLOAD","REV_AT_EPOCH":"6771","BSTAR":"0.00000573610000","TIME_SYSTEM":"UTC","APOAPSIS":"346.129","MEAN_MOTION":"15.75114927","RCS_SIZE":"LARGE","GP_ID":"195123645","RA_OF_ASC_NODE":"76.1268","CENTER_NAME":"EARTH","ELEMENT_SET_NO":"999","EPOCH":"2022-02-01T19:59:38.650272","NORAD_CAT_ID":"47156","INCLINATION":"53.0548","TLE_LINE1":"1 47156U 20088AL  22032.83308623  .00000233  00000-0  57361-5 0  9998","LAUNCH_DATE":"2020-11-25"},{"LAUNCH_DATE":"2020-11-25","TLE_LINE1":"1 47157U 20088AM  22032.79939192  .00011228  00000-0  77101-3 0  9993","INCLINATION":"53.0517","NORAD_CAT_ID":"47157","EPOCH":"2022-02-01T19:11:07.461888","ELEMENT_SET_NO":"999","RA_OF_ASC_NODE":"181.4126","GP_ID":"195123388","CENTER_NAME":"EARTH","RCS_SIZE":"LARGE","MEAN_MOTION":"15.06420682","TIME_SYSTEM":"UTC","APOAPSIS":"548.248","BSTAR":"0.00077101000000","REV_AT_EPOCH":"6622","OBJECT_TYPE":"PAYLOAD","ECCENTRICITY":"0.00015850","EPHEMERIS_TYPE":"0","CLASSIFICATION_TYPE":"U","MEAN_ELEMENT_THEORY":"SGP4","COUNTRY_CODE":"US","FILE":"3289675","MEAN_MOTION_DDOT":"0.0000000000000","PERIOD":"95.591","MEAN_MOTION_DOT":"0.00011228","ARG_OF_PERICENTER":"72.8242","OBJECT_ID":"2020-088AM","TLE_LINE2":"2 47157  53.0517 181.4126 0001585  72.8242 287.2921 15.06420682 66225","DECAY_DATE":null,"MEAN_ANOMALY":"287.2921","SEMIMAJOR_AXIS":"6925.285","REF_FRAME":"TEME","OBJECT_NAME":"STARLINK-1871","PERIAPSIS":"546.053","SITE":"AFETR"},{"OBJECT_ID":"2020-088AN","DECAY_DATE":null,"TLE_LINE2":"2 47158  53.0547 171.6027 0001862  78.2601 281.8597 15.06398195 66353","FILE":"3289675","COUNTRY_CODE":"US","ARG_OF_PERICENTER":"78.2601","PERIOD":"95.592","MEAN_MOTION_DDOT":"0.0000000000000","MEAN_MOTION_DOT":"0.00001800","MEAN_ELEMENT_THEORY":"SGP4","ECCENTRICITY":"0.00018620","OBJECT_TYPE":"PAYLOAD","CLASSIFICATION_TYPE":"U","EPHEMERIS_TYPE":"0","PERIAPSIS":"545.930","SITE":"AFETR","REF_FRAME":"TEME","OBJECT_NAME":"STARLINK-1873","MEAN_ANOMALY":"281.8597","SEMIMAJOR_AXIS":"6925.354","NORAD_CAT_ID":"47158","EPOCH":"2022-02-01T18:08:44.536128","INCLINATION":"53.0547","LAUNCH_DATE":"2020-11-25","TLE_LINE1":"1 47158U 20088AN  22032.75607102  .00001800  00000-0  13972-3 0  9994","BSTAR":"0.00013972000000","REV_AT_EPOCH":"6635","RCS_SIZE":"LARGE","MEAN_MOTION":"15.06398195","APOAPSIS":"548.509","TIME_SYSTEM":"UTC","ELEMENT_SET_NO":"999","CENTER_NAME":"EARTH","GP_ID":"195122644","RA_OF_ASC_NODE":"171.6027"},{"MEAN_MOTION":"15.68790256","RCS_SIZE":"LARGE","TIME_SYSTEM":"UTC","APOAPSIS":"363.551","ELEMENT_SET_NO":"999","CENTER_NAME":"EARTH","GP_ID":"195122894","RA_OF_ASC_NODE":"158.5870","BSTAR":"0.00327130000000","REV_AT_EPOCH":"6654","LAUNCH_DATE":"2020-11-25","TLE_LINE1":"1 47159U 20088AP  22032.79457746  .00400029  00000-0  32713-2 0  9995","NORAD_CAT_ID":"47159","EPOCH":"2022-02-01T19:04:11.492544","INCLINATION":"53.0535","REF_FRAME":"TEME","OBJECT_NAME":"STARLINK-1874","MEAN_ANOMALY":"349.8325","SEMIMAJOR_AXIS":"6740.497","PERIAPSIS":"361.173","SITE":"AFETR","MEAN_ELEMENT_THEORY":"SGP4","ECCENTRICITY":"0.00017640","OBJECT_TYPE":"PAYLOAD","CLASSIFICATION_TYPE":"U","EPHEMERIS_TYPE":"0","OBJECT_ID":"2020-088AP","DECAY_DATE":null,"TLE_LINE2":"2 47159  53.0535 158.5870 0001764  10.2727 349.8325 15.68790256 66544","FILE":"3289675","COUNTRY_CODE":"US","ARG_OF_PERICENTER":"10.2727","PERIOD":"91.790","MEAN_MOTION_DDOT":"0.0000000000000","MEAN_MOTION_DOT":"0.00400029"},{"SITE":"AFETR","PERIAPSIS":"545.861","SEMIMAJOR_AXIS":"6925.348","MEAN_ANOMALY":"277.3313","OBJECT_NAME":"STARLINK-1876","REF_FRAME":"TEME","MEAN_MOTION_DOT":"0.00000032","PERIOD":"95.592","MEAN_MOTION_DDOT":"0.0000000000000","ARG_OF_PERICENTER":"82.7898","FILE":"3289675","COUNTRY_CODE":"US","DECAY_DATE":null,"TLE_LINE2":"2 47161  53.0534 171.4593 0001953  82.7898 277.3313 15.06400084 66366","OBJECT_ID":"2020-088AR","EPHEMERIS_TYPE":"0","CLASSIFICATION_TYPE":"U","OBJECT_TYPE":"PAYLOAD","ECCENTRICITY":"0.00019530","MEAN_ELEMENT_THEORY":"SGP4","REV_AT_EPOCH":"6636","BSTAR":"0.00002104300000","CENTER_NAME":"EARTH","GP_ID":"195123146","RA_OF_ASC_NODE":"171.4593","ELEMENT_SET_NO":"999","TIME_SYSTEM":"UTC","APOAPSIS":"548.566","MEAN_MOTION":"15.06400084","RCS_SIZE":"LARGE","INCLINATION":"53.0534","EPOCH":"2022-02-01T18:56:30.588288","NORAD_CAT_ID":"47161","TLE_LINE1":"1 47161U 20088AR  22032.78924292  .00000032  00000-0  21043-4 0  9998","LAUNCH_DATE":"2020-11-25"},{"BSTAR":"0.00009182000000","REV_AT_EPOCH":"6621","ELEMENT_SET_NO":"999","GP_ID":"195123888","RA_OF_ASC_NODE":"181.7776","CENTER_NAME":"EARTH","RCS_SIZE":"LARGE","MEAN_MOTION":"15.06399461","APOAPSIS":"548.372","TIME_SYSTEM":"UTC","INCLINATION":"53.0546","NORAD_CAT_ID":"47162","EPOCH":"2022-02-01T17:14:20.268096","LAUNCH_DATE":"2020-11-25","TLE_LINE1":"1 47162U 20088AS  22032.71829014  .00001086  00000-0  91820-4 0  9998","PERIAPSIS":"546.059","SITE":"AFETR","MEAN_ANOMALY":"279.5302","SEMIMAJOR_AXIS":"6925.350","REF_FRAME":"TEME","OBJECT_NAME":"STARLINK-1877","FILE":"3289675","COUNTRY_CODE":"US","PERIOD":"95.592","MEAN_MOTION_DDOT":"0.0000000000000","ARG_OF_PERICENTER":"80.5876","MEAN_MOTION_DOT":"0.00001086","OBJECT_ID":"2020-088AS","DECAY_DATE":null,"TLE_LINE2":"2 47162  53.0546 181.7776 0001670  80.5876 279.5302 15.06399461 66217","OBJECT_TYPE":"PAYLOAD","ECCENTRICITY":"0.00016700","EPHEMERIS_TYPE":"0","CLASSIFICATION_TYPE":"U","MEAN_ELEMENT_THEORY":"SGP4"},{"TIME_SYSTEM":"UTC","APOAPSIS":"548.491","RCS_SIZE":"LARGE","MEAN_MOTION":"15.06390338","GP_ID":"195122145","CENTER_NAME":"EARTH","RA_OF_ASC_NODE":"191.3513","ELEMENT_SET_NO":"999","REV_AT_EPOCH":"6608","BSTAR":"0.00004519600000","TLE_LINE1":"1 47163U 20088AT  22032.81689488  .00000391  00000-0  45196-4 0  9992","LAUNCH_DATE":"2020-11-25","EPOCH":"2022-02-01T19:36:19.717632","NORAD_CAT_ID":"47163","INCLINATION":"53.0498","OBJECT_NAME":"STARLINK-1878","REF_FRAME":"TEME","SEMIMAJOR_AXIS":"6925.378","MEAN_ANOMALY":"272.5569","SITE":"AFETR","PERIAPSIS":"545.995","MEAN_ELEMENT_THEORY":"SGP4","EPHEMERIS_TYPE":"0","CLASSIFICATION_TYPE":"U","OBJECT_TYPE":"PAYLOAD","ECCENTRICITY":"0.00018020","TLE_LINE2":"2 47163  53.0498 191.3513 0001802  87.5626 272.5569 15.06390338 66084","DECAY_DATE":null,"OBJECT_ID":"2020-088AT","MEAN_MOTION_DOT":"0.00000391","PERIOD":"95.593","MEAN_MOTION_DDOT":"0.0000000000000","ARG_OF_PERICENTER":"87.5626","COUNTRY_CODE":"US","FILE":"3289675"},{"SITE":"AFETR","PERIAPSIS":"546.159","SEMIMAJOR_AXIS":"6925.347","MEAN_ANOMALY":"293.9175","OBJECT_NAME":"STARLINK-1879","REF_FRAME":"TEME","MEAN_MOTION_DDOT":"0.0000000000000","PERIOD":"95.592","ARG_OF_PERICENTER":"66.1973","MEAN_MOTION_DOT":"0.00001600","FILE":"3289675","COUNTRY_CODE":"US","DECAY_DATE":null,"TLE_LINE2":"2 47164  53.0550 161.3924 0001520  66.1973 293.9175 15.06400660 66509","OBJECT_ID":"2020-088AU","CLASSIFICATION_TYPE":"U","EPHEMERIS_TYPE":"0","OBJECT_TYPE":"PAYLOAD","ECCENTRICITY":"0.00015200","MEAN_ELEMENT_THEORY":"SGP4","REV_AT_EPOCH":"6650","BSTAR":"0.00012626000000","RA_OF_ASC_NODE":"161.3924","GP_ID":"195122395","CENTER_NAME":"EARTH","ELEMENT_SET_NO":"999","APOAPSIS":"548.264","TIME_SYSTEM":"UTC","RCS_SIZE":"LARGE","MEAN_MOTION":"15.06400660","INCLINATION":"53.0550","EPOCH":"2022-02-01T19:19:03.546624","NORAD_CAT_ID":"47164","TLE_LINE1":"1 47164U 20088AU  22032.80490216  .00001600  00000-0  12626-3 0  9996","LAUNCH_DATE":"2020-11-25"},{"LAUNCH_DATE":"2020-11-25","TLE_LINE1":"1 47165U 20088AV  22032.81043293  .00001561  00000-0  12365-3 0  9993","NORAD_CAT_ID":"47165","EPOCH":"2022-02-01T19:27:01.405152","INCLINATION":"53.0536","MEAN_MOTION":"15.06409377","RCS_SIZE":"LARGE","APOAPSIS":"548.474","TIME_SYSTEM":"UTC","ELEMENT_SET_NO":"999","GP_ID":"195123646","CENTER_NAME":"EARTH","RA_OF_ASC_NODE":"181.3646","BSTAR":"0.00012365000000","REV_AT_EPOCH":"6622","MEAN_ELEMENT_THEORY":"SGP4","OBJECT_TYPE":"PAYLOAD","ECCENTRICITY":"0.00018620","CLASSIFICATION_TYPE":"U","EPHEMERIS_TYPE":"0","OBJECT_ID":"2020-088AV","DECAY_DATE":null,"TLE_LINE2":"2 47165  53.0536 181.3646 0001862  92.6096 267.5106 15.06409377 66220","FILE":"3289675","COUNTRY_CODE":"US","PERIOD":"95.592","MEAN_MOTION_DOT":"0.00001561","MEAN_MOTION_DDOT":"0.0000000000000","ARG_OF_PERICENTER":"92.6096","REF_FRAME":"TEME","OBJECT_NAME":"STARLINK-1880","MEAN_ANOMALY":"267.5106","SEMIMAJOR_AXIS":"6925.320","PERIAPSIS":"545.895","SITE":"AFETR"},{"MEAN_ELEMENT_THEORY":"SGP4","CLASSIFICATION_TYPE":"U","EPHEMERIS_TYPE":"0","OBJECT_TYPE":"PAYLOAD","ECCENTRICITY":"0.00007490","TLE_LINE2":"2 47166  53.0498 127.6404 0000749  97.0146 263.0941 15.34972459 66978","DECAY_DATE":null,"OBJECT_ID":"2020-088AW","MEAN_MOTION_DDOT":"0.0000000000000","PERIOD":"93.813","ARG_OF_PERICENTER":"97.0146","MEAN_MOTION_DOT":"0.00078374","COUNTRY_CODE":"US","FILE":"3289675","OBJECT_NAME":"STARLINK-1881","REF_FRAME":"TEME","SEMIMAJOR_AXIS":"6839.139","MEAN_ANOMALY":"263.0941","SITE":"AFETR","PERIAPSIS":"460.492","TLE_LINE1":"1 47166U 20088AW  22032.65952233  .00078374  00000-0  22649-2 0  9990","LAUNCH_DATE":"2020-11-25","EPOCH":"2022-02-01T15:49:42.729312","NORAD_CAT_ID":"47166","INCLINATION":"53.0498","APOAPSIS":"461.517","TIME_SYSTEM":"UTC","RCS_SIZE":"LARGE","MEAN_MOTION":"15.34972459","CENTER_NAME":"EARTH","GP_ID":"195123389","RA_OF_ASC_NODE":"127.6404","ELEMENT_SET_NO":"999","REV_AT_EPOCH":"6697","BSTAR":"0.00226490000000"}];
